OBJECT_NAME,OBJECT_ID,EPOCH,MEAN_MOTION,ECCENTRICITY,INCLINATION,RA_OF_ASC_NODE,ARG_OF_PERICENTER,MEAN_ANOMALY,EPHEMERIS_TYPE,CLASSIFICATION_TYPE,NORAD_CAT_ID,ELEMENT_SET_NO,REV_AT_EPOCH,BSTAR,MEAN_MOTION_DOT,MEAN_MOTION_DDOT
STARLINK-4265,2022-076AB,2026-07-11T15:16:35.585472,15.08839254,.00013182,53.1577,247.4552,76.7543,283.3596,0,U,53011,999,22169,.64977352E-4,.746E-5,0
STARLINK-4271,2022-076AC,2026-07-10T12:34:52.284864,15.08865125,.0000778,53.1578,262.4571,88.7643,271.3437,0,U,53012,999,22139,.19409E-3,.2805E-4,0
STARLINK-4177,2022-076AD,2026-07-11T22:00:03.000096,15.29304399,.00004028,53.1582,244.3384,70.3838,292.8597,0,U,53013,999,549,.15226512E-2,.43771E-3,0
STARLINK-4183,2022-076AE,2026-07-11T04:19:29.836416,15.08837482,.0001283,53.1572,249.5066,82.9471,277.1666,0,U,53014,999,22162,.83157629E-4,.1036E-4,0
STARLINK-4262,2022-076AF,2026-07-11T14:55:23.748960,15.08838896,.00011098,53.1581,247.5226,53.9987,306.1107,0,U,53015,999,22169,-.23274203E-4,-.658E-5,0
STARLINK-4283,2022-076AG,2026-07-11T22:00:03.000096,15.29256836,.00016696,53.1605,245.2584,102.0211,126.3266,0,U,53016,999,575,.12428791E-2,.35571E-3,0
STARLINK-4281,2022-076AH,2026-07-11T22:00:03.000096,15.74133965,.00013796,53.2122,224.2353,82.9428,254.0246,0,U,53017,999,588,.31986987E-2,.495241E-2,0
STARLINK-4279,2022-076AJ,2026-07-11T22:00:03.000096,15.68549527,.00009142,53.2163,225.6870,80.0917,201.5069,0,U,53018,999,586,.29036204E-2,.349286E-2,0
STARLINK-4282,2022-076AK,2026-07-10T04:14:37.877856,15.08018867,.00016555,53.1613,254.2921,101.7043,258.4134,0,U,53019,999,22147,.85224047E-4,.1041E-4,0
STARLINK-4287,2022-076AL,2026-07-11T15:00:41.770080,15.08835320,.00011363,53.1577,247.5060,88.7866,271.3255,0,U,53020,999,22169,.5357111E-4,.565E-5,0
STARLINK-4216,2022-076AN,2026-07-11T22:00:03.000096,15.10567348,.00010236,53.1592,246.1852,85.2502,124.5693,0,U,53022,999,574,.27142148E-1,.479522E-2,0
STARLINK-4284,2022-076AP,2026-07-11T11:07:32.015136,15.08837113,.00014023,53.1575,248.2249,80.9600,279.1550,0,U,53023,999,22167,.76138141E-4,.924E-5,0
STARLINK-4289,2022-076AQ,2026-07-11T11:12:50.825088,15.08828715,.00013049,53.1586,248.2195,93.7396,266.3744,0,U,53024,999,22167,.19914808E-4,.29E-6,0
STARLINK-4218,2022-076AR,2026-07-11T04:40:41.292768,15.08841471,.00014437,53.1585,249.4426,71.6363,288.4786,0,U,53025,999,22163,.32744637E-4,.233E-5,0
STARLINK-4119,2022-076AS,2026-07-11T04:01:31.741536,15.31706307,.00014311,53.1615,246.3290,93.7059,266.4106,0,U,53026,999,22167,.28717235E-3,.8558E-4,0
STARLINK-4158,2022-076AT,2026-07-11T22:00:03.000096,15.33249031,.00017239,53.1602,243.9212,68.7608,48.5688,0,U,53027,999,575,.25780484E-2,.84569E-3,0
STARLINK-4143,2022-076AV,2026-07-11T13:37:14.186784,15.08829094,.00010551,53.1578,237.7671,79.9141,280.1970,0,U,53029,999,22182,-.34409E-7,-.288E-5,0
STARLINK-4160,2022-076AW,2026-07-11T22:00:03.000096,15.34383860,.00011087,53.1603,243.4518,85.0590,230.1621,0,U,53030,999,574,.41499866E-3,.13664E-3,0
STARLINK-4137,2022-076AX,2026-07-11T03:49:02.186112,15.08827437,.00011273,53.1575,239.6028,84.3942,275.7178,0,U,53031,999,22176,-.6843532E-5,-.397E-5,0
STARLINK-4115,2022-076AY,2026-07-11T22:00:03.000096,15.35388020,.0000873,53.1606,243.6689,50.1677,174.6568,0,U,53032,999,575,.46405799E-3,.15834E-3,0
STARLINK-4167,2022-076AZ,2026-07-11T03:54:19.827072,15.08834586,.00009983,53.1580,239.5861,83.9735,276.1370,0,U,53033,999,22176,.12330321E-3,.1675E-4,0
STARLINK-4151,2022-076BA,2026-07-11T22:00:03.000096,15.19930330,.00019202,53.1601,236.0010,68.6395,151.3901,0,U,53034,999,575,.26597992E-2,.58029E-3,0
STARLINK-4157,2022-076BB,2026-07-11T11:40:39.140832,15.08839972,.00012219,53.1581,238.1298,92.1044,268.0087,0,U,53035,999,22181,.10929995E-3,.1452E-4,0
STARLINK-4155,2022-076BC,2026-07-11T14:46:07.615488,15.08838932,.00012581,53.1578,237.5503,67.1506,292.9619,0,U,53036,999,22183,.10043407E-3,.1311E-4,0
STARLINK-4153,2022-076BD,2026-07-11T11:30:02.717568,15.08830541,.00015474,53.1577,238.1635,93.1964,266.9204,0,U,53037,999,22181,.2308104E-4,.79E-6,0
STARLINK-4156,2022-076BE,2026-07-11T14:35:31.593120,15.08836045,.00013078,53.1583,237.5854,81.2555,278.8584,0,U,53038,999,22183,.54916951E-4,.586E-5,0
STARLINK-4362,2022-077A,2026-07-11T10:57:18.527616,15.05658795,.00012446,97.2839,10.1137,94.0074,266.1296,0,U,53043,999,21953,.50516755E-4,.673E-5,0
STARLINK-4350,2022-077C,2026-07-11T22:37:04.738080,15.05657351,.00013496,97.2839,11.7336,87.7920,272.3462,0,U,53045,999,21968,-.13867318E-3,-.2057E-4,0
STARLINK-4331,2022-077D,2026-07-11T12:03:04.247136,15.05652763,.00008638,97.2879,11.4120,58.0715,302.0597,0,U,53046,999,21962,.27867085E-4,.346E-5,0
STARLINK-4352,2022-077E,2026-07-11T22:55:05.064672,15.05658898,.00016819,97.2850,10.6461,119.0640,241.0756,0,U,53047,999,21961,.26302962E-4,.323E-5,0
STARLINK-4355,2022-077F,2026-07-11T15:54:21.120480,15.05709061,.00011112,97.2839,11.4954,122.3719,237.7617,0,U,53048,999,21963,-.62889438E-3,-.9133E-4,0
STARLINK-4345,2022-077G,2026-07-11T12:01:06.543552,15.05656311,.00012393,97.2854,10.1786,113.4329,246.7029,0,U,53049,999,21953,.13487918E-4,.138E-5,0
STARLINK-4343,2022-077H,2026-07-11T22:49:02.143200,15.05653883,.00015548,97.2851,11.7138,103.8918,256.2483,0,U,53050,999,21967,-.30407332E-4,-.495E-5,0
STARLINK-4336,2022-077J,2026-07-11T21:55:16.003488,15.05658622,.00015386,97.2850,10.5308,88.2867,271.8537,0,U,53051,999,21959,.8865627E-4,.1223E-4,0
STARLINK-4341,2022-077K,2026-07-11T12:05:06.866016,15.05658934,.00010145,97.2863,10.1791,103.3678,256.7663,0,U,53052,999,21953,.91301145E-4,.1262E-4,0
STARLINK-4337,2022-077L,2026-07-11T10:41:21.065280,15.05658004,.00014042,97.2853,10.0867,91.0316,269.1072,0,U,53053,999,21952,-.2350298E-5,-.9E-6,0
STARLINK-4339,2022-077M,2026-07-11T10:47:18.445920,15.05656753,.00014176,97.2854,11.3135,102.2789,257.8598,0,U,53054,999,21960,.34600558E-4,.443E-5,0
STARLINK-4338,2022-077N,2026-07-11T11:31:09.698304,15.05662912,.00015674,97.2838,11.2553,121.7032,238.4349,0,U,53055,999,21960,-.13210829E-4,-.247E-5,0
STARLINK-4314,2022-077P,2026-07-09T17:43:02.596800,15.05650737,.00015586,97.2828,9.6507,92.6500,267.4906,0,U,53056,999,21934,-.1981867E-5,-.85E-6,0
STARLINK-4252,2022-077Q,2026-07-11T11:47:07.285056,15.05653270,.0001931,97.2846,11.3845,88.0743,272.0705,0,U,53057,999,21961,.8592885E-5,.68E-6,0
STARLINK-4317,2022-077R,2026-07-11T10:53:20.856768,15.05657620,.00010016,97.2840,10.2236,120.3379,239.7947,0,U,53058,999,21954,.73753442E-4,.1008E-4,0
STARLINK-4320,2022-077S,2026-07-11T22:47:05.502336,15.05648412,.00022312,97.2846,10.6056,105.2523,254.8951,0,U,53059,999,21960,-.750032E-6,-.67E-6,0
STARLINK-4305,2022-077T,2026-07-11T12:13:04.044576,15.05661520,.00011984,97.2857,10.1449,98.2362,261.9001,0,U,53060,999,21953,.82466698E-4,.1134E-4,0
STARLINK-4308,2022-077U,2026-07-11T22:39:06.872256,15.05652186,.00016103,97.2835,10.6071,91.3459,268.7953,0,U,53061,999,21960,-.30212219E-4,-.492E-5,0
STARLINK-4311,2022-077V,2026-07-11T10:49:21.164160,15.05666058,.00017012,97.2846,10.2151,92.3853,267.7570,0,U,53062,999,21953,.14979062E-3,.2106E-4,0
STARLINK-4307,2022-077W,2026-07-11T12:11:01.709952,15.05655387,.00011223,97.2864,11.2709,108.5931,251.5418,0,U,53063,999,9119,.30078279E-4,.378E-5,0
STARLINK-4313,2022-077X,2026-07-11T22:01:11.879040,15.05662581,.00014152,97.2850,11.7146,107.3723,252.7659,0,U,53064,999,21967,.11920771E-3,.1665E-4,0
STARLINK-4312,2022-077Y,2026-07-11T12:09:05.679072,15.05653390,.00017522,97.2877,10.2753,105.1816,254.9606,0,U,53065,999,21954,.28500312E-4,.355E-5,0
STARLINK-4309,2022-077Z,2026-07-11T22:15:12.841344,15.05659566,.00014987,97.2826,10.6253,108.5378,251.6013,0,U,53066,999,21960,.20412842E-3,.2891E-4,0
STARLINK-4325,2022-077AB,2026-07-11T13:54:42.713856,15.05662165,.00013943,97.2854,11.3926,103.7911,256.3472,0,U,53068,999,21962,.30962685E-4,.391E-5,0
STARLINK-4323,2022-077AC,2026-07-11T22:43:05.692224,15.05655663,.00014224,97.2853,10.5802,103.5396,256.5991,0,U,53069,999,21960,.26259562E-4,.323E-5,0
STARLINK-4342,2022-077AD,2026-07-11T11:23:12.074784,15.05653606,.00015141,97.2844,11.3816,109.3836,250.7555,0,U,53070,999,21961,-.6011558E-5,-.143E-5,0
STARLINK-4328,2022-077AE,2026-07-11T11:19:12.826272,15.05652365,.00014702,97.2844,11.3687,100.1567,259.9827,0,U,53071,999,21961,-.28539319E-4,-.468E-5,0
STARLINK-4344,2022-077AF,2026-07-11T10:59:17.090016,15.05657940,.00016637,97.2845,11.2430,103.3829,256.7584,0,U,53072,999,21960,.86377211E-4,.119E-4,0
STARLINK-4346,2022-077AG,2026-07-11T22:05:25.566720,15.23321253,.00069428,97.6332,22.8732,141.1410,219.0327,0,U,53073,999,22019,.41861255E-3,.9875E-4,0
STARLINK-4310,2022-077AH,2026-07-11T22:00:03.000096,15.57613339,.00019129,97.5779,15.1827,88.3169,172.7902,0,U,53074,999,573,.14822424E-1,.1198241E-1,0
STARLINK-4348,2022-077AJ,2026-07-11T22:51:05.134464,15.05654180,.0001585,97.2848,10.7043,102.5334,257.6071,0,U,53075,999,21961,.2261439E-5,-.24E-6,0
STARLINK-4347,2022-077AK,2026-07-11T11:17:15.045792,15.05655010,.00014118,97.2836,10.1464,127.0902,233.0455,0,U,53076,999,21953,-.41926103E-4,-.661E-5,0
STARLINK-4322,2022-077AM,2026-07-11T13:24:52.598304,15.05661937,.00021239,97.2856,10.3251,98.7240,261.4228,0,U,53078,999,21955,.34923937E-4,.448E-5,0
STARLINK-4327,2022-077AN,2026-07-11T22:53:02.412096,15.05660500,.00016077,97.2861,11.7611,91.1248,269.0164,0,U,53079,999,21968,.46215524E-4,.611E-5,0
STARLINK-4330,2022-077AP,2026-07-11T21:41:15.029088,15.05666446,.00015364,97.2852,11.7089,106.3435,253.7962,0,U,53080,999,21967,.56316908E-4,.757E-5,0
STARLINK-4326,2022-077AQ,2026-07-11T22:11:13.643808,15.05655791,.000141,97.2827,10.5706,98.3895,261.7492,0,U,53081,999,21960,.37379579E-4,.483E-5,0
STARLINK-4321,2022-077AR,2026-07-11T11:25:13.540224,15.05631638,.00019248,97.2821,10.1122,91.9979,268.1469,0,U,53082,999,21953,-.57232029E-4,-.881E-5,0
STARLINK-4251,2022-077AS,2026-07-11T11:59:04.148448,15.05652613,.00014093,97.2856,11.2713,94.9523,265.1865,0,U,53083,999,21961,.47347579E-4,.627E-5,0
